{
  "type": "FeatureCollection",
  "features": [
    {
      "type": "Feature",
      "properties": {
        "norad_id": 37589,
        "name": "FENGYUN 1C DEB",
        "group": "fengyun-1c-debris",
        "lat": -39.33296999029418,
        "lon": -106.65935850772891,
        "alt_km": 811.3260492367472,
        "timestamp": "2025-12-09T05:43:21.015672+00:00",
        "meta_object_name": "FENGYUN 1C DEB",
        "meta_object_id": "1999-025EKH",
        "meta_epoch": "2025-12-02T23:49:55.171488",
        "meta_mean_motion": 14.07988933,
        "meta_eccentricity": 0.01206156,
        "meta_inclination": 99.0733,
        "meta_ra_of_asc_node": 239.5393,
        "meta_arg_of_pericenter": 291.4169,
        "meta_mean_anomaly": 67.4168,
        "meta_ephemeris_type": 0,
        "meta_classification_type": "U",
        "meta_norad_cat_id": 37589,
        "meta_element_set_no": 999,
        "meta_rev_at_epoch": 82447,
        "meta_bstar": 0.0045555953,
        "meta_mean_motion_dot": 8.24e-05,
        "meta_mean_motion_ddot": 0,
        "tle_line1": "1 37589U 99025EKH 25336.99299967  .00008240  00000+0  45556-2 0  9996",
        "tle_line2": "2 37589  99.0733 239.5393 0120615 291.4169  67.4168 14.07988933824475"
      },
      "geometry": {
        "type": "Point",
        "coordinates": [
          -106.65935850772891,
          -39.33296999029418
        ]
      }
    },
    {
      "type": "Feature",
      "properties": {
        "norad_id": 37594,
        "name": "FENGYUN 1C DEB",
        "group": "fengyun-1c-debris",
        "lat": 58.767918173144274,
        "lon": -152.6428291876809,
        "alt_km": 907.5735800804214,
        "timestamp": "2025-12-09T05:43:21.015683+00:00",
        "meta_object_name": "FENGYUN 1C DEB",
        "meta_object_id": "1999-025EKN",
        "meta_epoch": "2025-12-01T20:10:06.711744",
        "meta_mean_motion": 14.11100402,
        "meta_eccentricity": 0.00849769,
        "meta_inclination": 98.7356,
        "meta_ra_of_asc_node": 5.4727,
        "meta_arg_of_pericenter": 301.0362,
        "meta_mean_anomaly": 58.2487,
        "meta_ephemeris_type": 0,
        "meta_classification_type": "U",
        "meta_norad_cat_id": 37594,
        "meta_element_set_no": 999,
        "meta_rev_at_epoch": 77608,
        "meta_bstar": 0.00031068206,
        "meta_mean_motion_dot": 5.35e-06,
        "meta_mean_motion_ddot": 0,
        "tle_line1": "1 37594U 99025EKN 25335.84035546  .00000535  00000+0  31068-3 0  9999",
        "tle_line2": "2 37594  98.7356   5.4727 0084976 301.0362  58.2487 14.11100402776088"
      },
      "geometry": {
        "type": "Point",
        "coordinates": [
          -152.6428291876809,
          58.767918173144274
        ]
      }
    },
    {
      "type": "Feature",
      "properties": {
        "norad_id": 37600,
        "name": "FENGYUN 1C DEB",
        "group": "fengyun-1c-debris",
        "lat": -60.57326179750581,
        "lon": 156.31241167693506,
        "alt_km": 1089.5735490817578,
        "timestamp": "2025-12-09T05:43:21.015694+00:00",
        "meta_object_name": "FENGYUN 1C DEB",
        "meta_object_id": "1999-025EKU",
        "meta_epoch": "2025-12-08T05:42:14.704416",
        "meta_mean_motion": 13.82487152,
        "meta_eccentricity": 0.03571755,
        "meta_inclination": 98.9374,
        "meta_ra_of_asc_node": 139.1622,
        "meta_arg_of_pericenter": 61.7871,
        "meta_mean_anomaly": 301.8867,
        "meta_ephemeris_type": 0,
        "meta_classification_type": "U",
        "meta_norad_cat_id": 37600,
        "meta_element_set_no": 999,
        "meta_rev_at_epoch": 88425,
        "meta_bstar": 0.0032583606,
        "meta_mean_motion_dot": 5.721e-05,
        "meta_mean_motion_ddot": 0,
        "tle_line1": "1 37600U 99025EKU 25342.23767019  .00005721  00000+0  32584-2 0  9990",
        "tle_line2": "2 37600  98.9374 139.1622 0357175  61.7871 301.8867 13.82487152884251"
      },
      "geometry": {
        "type": "Point",
        "coordinates": [
          156.31241167693506,
          -60.57326179750581
        ]
      }
    },
    {
      "type": "Feature",
      "properties": {
        "norad_id": 37683,
        "name": "FENGYUN 1C DEB",
        "group": "fengyun-1c-debris",
        "lat": -16.390928216768117,
        "lon": 81.42669962698102,
        "alt_km": 921.3998930602302,
        "timestamp": "2025-12-09T05:43:21.015705+00:00",
        "meta_object_name": "FENGYUN 1C DEB",
        "meta_object_id": "1999-025EKY",
        "meta_epoch": "2025-12-08T13:25:17.802912",
        "meta_mean_motion": 13.31886709,
        "meta_eccentricity": 0.0584762,
        "meta_inclination": 98.0023,
        "meta_ra_of_asc_node": 263.2652,
        "meta_arg_of_pericenter": 135.7067,
        "meta_mean_anomaly": 40.0004,
        "meta_ephemeris_type": 0,
        "meta_classification_type": "U",
        "meta_norad_cat_id": 37683,
        "meta_element_set_no": 999,
        "meta_rev_at_epoch": 29184,
        "meta_bstar": 0.0020017,
        "meta_mean_motion_dot": 2.496e-05,
        "meta_mean_motion_ddot": 0,
        "tle_line1": "1 37683U 99025EKY 25342.55923383  .00002496  00000+0  20017-2 0  9998",
        "tle_line2": "2 37683  98.0023 263.2652 0584762 135.7067  40.0004 13.31886709291846"
      },
      "geometry": {
        "type": "Point",
        "coordinates": [
          81.42669962698102,
          -16.390928216768117
        ]
      }
    },
    {
      "type": "Feature",
      "properties": {
        "norad_id": 37686,
        "name": "FENGYUN 1C DEB",
        "group": "fengyun-1c-debris",
        "lat": 10.23610541759849,
        "lon": -176.28812257437244,
        "alt_km": 1260.9739919710782,
        "timestamp": "2025-12-09T05:43:21.015716+00:00",
        "meta_object_name": "FENGYUN 1C DEB",
        "meta_object_id": "1999-025ELB",
        "meta_epoch": "2025-12-07T08:01:13.554624",
        "meta_mean_motion": 13.35357238,
        "meta_eccentricity": 0.03961144,
        "meta_inclination": 99.0216,
        "meta_ra_of_asc_node": 0.3813,
        "meta_arg_of_pericenter": 55.6647,
        "meta_mean_anomaly": 320.2432,
        "meta_ephemeris_type": 0,
        "meta_classification_type": "U",
        "meta_norad_cat_id": 37686,
        "meta_element_set_no": 999,
        "meta_rev_at_epoch": 60555,
        "meta_bstar": 0.00092551492,
        "meta_mean_motion_dot": 6.98e-06,
        "meta_mean_motion_ddot": 0,
        "tle_line1": "1 37686U 99025ELB 25341.33418466  .00000698  00000+0  92551-3 0  9992",
        "tle_line2": "2 37686  99.0216   0.3813 0396114  55.6647 320.2432 13.35357238605558"
      },
      "geometry": {
        "type": "Point",
        "coordinates": [
          -176.28812257437244,
          10.23610541759849
        ]
      }
    },
    {
      "type": "Feature",
      "properties": {
        "norad_id": 37687,
        "name": "FENGYUN 1C DEB",
        "group": "fengyun-1c-debris",
        "lat": -55.11873033285876,
        "lon": 30.74005981046988,
        "alt_km": 840.6835050103691,
        "timestamp": "2025-12-09T05:43:21.015727+00:00",
        "meta_object_name": "FENGYUN 1C DEB",
        "meta_object_id": "1999-025ELC",
        "meta_epoch": "2025-12-07T08:58:35.425632",
        "meta_mean_motion": 13.85235911,
        "meta_eccentricity": 0.03335942,
        "meta_inclination": 98.2039,
        "meta_ra_of_asc_node": 17.1617,
        "meta_arg_of_pericenter": 13.7814,
        "meta_mean_anomaly": 1.1936,
        "meta_ephemeris_type": 0,
        "meta_classification_type": "U",
        "meta_norad_cat_id": 37687,
        "meta_element_set_no": 999,
        "meta_rev_at_epoch": 83180,
        "meta_bstar": 0.0054504085,
        "meta_mean_motion_dot": 9.53e-05,
        "meta_mean_motion_ddot": 0,
        "tle_line1": "1 37687U 99025ELC 25341.37402113  .00009530  00000+0  54504-2 0  9998",
        "tle_line2": "2 37687  98.2039  17.1617 0333594  13.7814   1.1936 13.85235911831806"
      },
      "geometry": {
        "type": "Point",
        "coordinates": [
          30.74005981046988,
          -55.11873033285876
        ]
      }
    },
    {
      "type": "Feature",
      "properties": {
        "norad_id": 37689,
        "name": "FENGYUN 1C DEB",
        "group": "fengyun-1c-debris",
        "lat": -75.079386918478,
        "lon": 167.85252339303588,
        "alt_km": 723.3427860700458,
        "timestamp": "2025-12-09T05:43:21.015738+00:00",
        "meta_object_name": "FENGYUN 1C DEB",
        "meta_object_id": "1999-025ELE",
        "meta_epoch": "2025-12-07T09:25:52.270176",
        "meta_mean_motion": 14.48499283,
        "meta_eccentricity": 0.00203303,
        "meta_inclination": 98.9195,
        "meta_ra_of_asc_node": 22.0174,
        "meta_arg_of_pericenter": 255.7639,
        "meta_mean_anomaly": 104.1295,
        "meta_ephemeris_type": 0,
        "meta_classification_type": "U",
        "meta_norad_cat_id": 37689,
        "meta_element_set_no": 999,
        "meta_rev_at_epoch": 57735,
        "meta_bstar": 0.0039954298,
        "meta_mean_motion_dot": 0.00015015,
        "meta_mean_motion_ddot": 0,
        "tle_line1": "1 37689U 99025ELE 25341.39296609  .00015015  00000+0  39954-2 0  9990",
        "tle_line2": "2 37689  98.9195  22.0174 0020330 255.7639 104.1295 14.48499283577358"
      },
      "geometry": {
        "type": "Point",
        "coordinates": [
          167.85252339303588,
          -75.079386918478
        ]
      }
    }
  ]
}